NORAD_CAT_ID,OBJECT_NAME,OBJECT_TYPE,EPOCH,MEAN_MOTION,ECCENTRICITY,INCLINATION,RA_OF_ASC_NODE,ARG_OF_PERICENTER,MEAN_ANOMALY,BSTAR,MEAN_MOTION_DOT,MEAN_MOTION_DDOT,TLE_LINE0,TLE_LINE1,TLE_LINE2,SEMIMAJOR_AXIS,PERIOD,APOGEE,PERIGEE,DECAYED
56475.0,STARLINK-5541,PAYLOAD,2024-07-22 08:16:17,14.98333394,0.0003291,69.9997,185.4786,268.279,91.7992,7.887e-05,8.48e-06,0.0,0 STARLINK-5541,1 56475U 23064AD  24204.34464691  .00000848  00000-0  78870-4 0  9995,2 56475  69.9997 185.4786 0003291 268.2790  91.7992 14.98333394 66563,6950.182,96.107,574.335,569.76,0.0
56475.0,STARLINK-5541,PAYLOAD,2024-07-22 22:41:30,14.98332663,0.0003303,69.9996,183.9637,268.4132,91.6649,6.9142e-05,7.32e-06,0.0,0 STARLINK-5541,1 56475U 23064AD  24204.94548683  .00000732  00000-0  69142-4 0  9999,2 56475  69.9996 183.9637 0003303 268.4132  91.6649 14.98332663 66652,6950.185,96.107,574.345,569.754,0.0
56475.0,STARLINK-5541,PAYLOAD,2024-07-23 05:06:02,14.98334846,0.0003305,69.9995,183.2903,267.8811,92.197,8.5686e-05,9.3e-06,0.0,0 STARLINK-5541,1 56475U 23064AD  24205.21252471  .00000930  00000-0  85686-4 0  9998,2 56475  69.9995 183.2903 0003305 267.8811  92.1970 14.98334846 67052,6950.178,96.107,574.34,569.746,0.0
56475.0,STARLINK-5541,PAYLOAD,2024-07-23 08:18:18,14.98336723,0.0003285,69.9995,182.9537,267.9905,92.0877,0.00010473,1.157e-05,0.0,0 STARLINK-5541,1 56475U 23064AD  24205.34604275  .00001157  00000-0  10473-3 0  9998,2 56475  69.9995 182.9537 0003285 267.9905  92.0877 14.98336723 66716,6950.172,96.107,574.32,569.754,0.0
56475.0,STARLINK-5541,PAYLOAD,2024-07-23 16:18:58,14.98330091,0.0003265,69.9996,182.111,268.6471,91.4314,1.3346e-05,6.6e-07,0.0,0 STARLINK-5541,1 56475U 23064AD  24205.67984848  .00000066  00000-0  13346-4 0  9992,2 56475  69.9996 182.1110 0003265 268.6471  91.4314 14.98330091 67127,6950.193,96.107,574.327,569.788,0.0
56475.0,STARLINK-5541,PAYLOAD,2024-07-23 22:43:31,14.98325661,0.0003144,69.9997,181.4379,267.5359,92.544,-3.4954e-05,-5.1e-06,0.0,0 STARLINK-5541,1 56475U 23064AD  24205.94689304 -.00000510  00000-0 -34954-4 0  9995,2 56475  69.9997 181.4379 0003144 267.5359  92.5440 14.98325661 66809,6950.206,96.107,574.256,569.886,0.0
56475.0,STARLINK-5541,PAYLOAD,2024-07-24 05:08:04,14.98323505,0.0003183,69.9996,180.7648,267.8024,92.2771,-6.3198e-05,-8.47e-06,0.0,0 STARLINK-5541,1 56475U 23064AD  24206.21393563 -.00000847  00000-0 -63198-4 0  9990,2 56475  69.9996 180.7648 0003183 267.8024  92.2771 14.98323505 67208,6950.213,96.107,574.29,569.866,0.0
56475.0,STARLINK-5541,PAYLOAD,2024-07-24 08:20:20,14.98325127,0.0003186,69.9996,180.4282,268.0023,92.0772,-4.5144e-05,-6.32e-06,0.0,0 STARLINK-5541,1 56475U 23064AD  24206.34745449 -.00000632  00000-0 -45144-4 0  9991,2 56475  69.9996 180.4282 0003186 268.0023  92.0772 14.98325127 66866,6950.208,96.107,574.287,569.859,0.0
56475.0,STARLINK-5541,PAYLOAD,2024-07-24 21:09:24,14.98332931,0.0003209,69.9994,179.0817,267.9626,92.1166,1.2461e-05,5.6e-07,0.0,0 STARLINK-5541,1 56475U 23064AD  24206.88152861  .00000056  00000-0  12461-4 0  9994,2 56475  69.9994 179.0817 0003209 267.9626  92.1166 14.98332931 67304,6950.184,96.107,574.279,569.819,0.0
56475.0,STARLINK-5541,PAYLOAD,2024-07-24 22:45:32,14.983342,0.0003229,69.9994,178.9136,268.2202,91.8587,2.3878e-05,1.92e-06,0.0,0 STARLINK-5541,1 56475U 23064AD  24206.94828738  .00000192  00000-0  23878-4 0  9999,2 56475  69.9994 178.9136 0003229 268.2202  91.8587 14.98334200 66956,6950.18,96.107,574.289,569.801,0.0
56475.0,STARLINK-5541,PAYLOAD,2024-07-25 06:46:12,14.98337153,0.0003208,69.9995,178.072,268.1869,91.8922,5.8717e-05,6.08e-06,0.0,0 STARLINK-5541,1 56475U 23064AD  24207.28208381  .00000608  00000-0  58717-4 0  9995,2 56475  69.9995 178.0720 0003208 268.1869  91.8922 14.98337153 67002,6950.171,96.107,574.265,569.806,0.0
56475.0,STARLINK-5541,PAYLOAD,2024-07-25 21:11:25,14.98323911,0.0003162,69.9996,176.5577,270.6531,89.4265,8.457e-05,9.16e-06,0.0,0 STARLINK-5541,1 56475U 23064AD  24207.88293070  .00000916  00000-0  84570-4 0  9998,2 56475  69.9996 176.5577 0003162 270.6531  89.4265 14.98323911 67458,6950.212,96.107,574.274,569.879,0.0
56475.0,STARLINK-5541,PAYLOAD,2024-07-26 08:24:21,14.98329649,0.000301,69.9999,175.3797,269.6724,90.409,0.00015047,1.703e-05,0.0,0 STARLINK-5541,1 56475U 23064AD  24208.35024670  .00001703  00000-0  15047-3 0  9996,2 56475  69.9999 175.3797 0003010 269.6724  90.4090 14.98329649 67526,6950.194,96.107,574.151,569.967,0.0
56475.0,STARLINK-5541,PAYLOAD,2024-07-26 21:13:25,14.98336046,0.0002873,70.0002,174.0334,267.9405,92.1425,3.7152e-05,3.5e-06,0.0,0 STARLINK-5541,1 56475U 23064AD  24208.88432491  .00000350  00000-0  37152-4 0  9997,2 56475  70.0002 174.0334 0002873 267.9405  92.1425 14.98336046 67249,6950.174,96.107,574.036,570.042,0.0
56475.0,STARLINK-5541,PAYLOAD,2024-07-27 03:38:00,14.98306919,0.0004407,69.9988,173.3577,273.3535,86.712,-0.00031559,-3.855e-05,0.0,0 STARLINK-5541,1 56475U 23064AD  24209.15139252 -.00003855  00000-0 -31559-3 0  9996,2 56475  69.9988 173.3577 0004407 273.3535  86.7120 14.98306919 67641,6950.264,96.108,575.192,569.066,0.0
56475.0,STARLINK-5541,PAYLOAD,2024-07-27 05:14:08,14.98305242,0.0003036,70.0003,173.192,269.1598,90.9213,-0.00028789,-3.524e-05,0.0,0 STARLINK-5541,1 56475U 23064AD  24209.21815496 -.00003524  00000-0 -28789-3 0  9998,2 56475  70.0003 173.1920 0003036 269.1598  90.9213 14.98305242 67290,6950.269,96.109,574.245,570.024,0.0
56475.0,STARLINK-5541,PAYLOAD,2024-07-27 06:50:18,14.98280166,0.0002692,70.0003,173.0237,271.0706,89.0144,-0.00056235,-6.788e-05,0.0,0 STARLINK-5541,1 56475U 23064AD  24209.28493921 -.00006788  00000-0 -56235-3 0  9992,2 56475  70.0003 173.0237 0002692 271.0706  89.0144 14.98280166 67660,6950.347,96.11,574.083,570.341,0.0
56475.0,STARLINK-5541,PAYLOAD,2024-07-27 22:51:35,14.98333824,0.000279,70.0,171.3402,277.0708,83.0134,0.00012668,1.419e-05,0.0,0 STARLINK-5541,1 56475U 23064AD  24209.95249776  .00001419  00000-0  12668-3 0  9999,2 56475  70.0000 171.3402 0002790 277.0708  83.0134 14.98333824 67404,6950.181,96.107,573.985,570.107,0.0
56475.0,STARLINK-5541,PAYLOAD,2024-07-28 03:39:59,14.98334691,0.0002832,69.9998,170.8351,277.5609,82.5228,0.00012037,1.344e-05,0.0,0 STARLINK-5541,1 56475U 23064AD  24210.15277741  .00001344  00000-0  12037-3 0  9993,2 56475  69.9998 170.8351 0002832 277.5609  82.5228 14.98334691 67799,6950.178,96.107,574.012,570.075,0.0
56475.0,STARLINK-5541,PAYLOAD,2024-07-28 22:53:36,14.98340407,0.0002864,69.9999,168.8152,279.3768,80.7068,0.0001629,1.852e-05,0.0,0 STARLINK-5541,1 56475U 23064AD  24210.95389062  .00001852  00000-0  16290-3 0  9990,2 56475  69.9999 168.8152 0002864 279.3768  80.7068 14.98340407 67555,6950.161,96.106,574.016,570.035,0.0
56475.0,STARLINK-5541,PAYLOAD,2024-07-29 05:18:08,14.98331791,0.0002921,70.0002,168.1419,277.3465,82.7362,0.00045152,5.299e-05,0.0,0 STARLINK-5541,1 56475U 23064AD  24211.22092789  .00005299  00000-0  45152-3 0  9996,2 56475  70.0002 168.1419 0002921 277.3465  82.7362 14.98331791 67957,6950.187,96.107,574.083,570.022,0.0
56475.0,STARLINK-5541,PAYLOAD,2024-07-29 06:54:16,14.98333193,0.0002889,70.0003,167.9737,277.4565,82.6266,0.00045897,5.388e-05,0.0,0 STARLINK-5541,1 56475U 23064AD  24211.28768691  .00005388  00000-0  45897-3 0  9999,2 56475  70.0003 167.9737 0002889 277.4565  82.6266 14.98333193 67605,6950.183,96.107,574.056,570.04,0.0
56475.0,STARLINK-5541,PAYLOAD,2024-07-29 22:55:37,14.98340971,0.000263,70.0013,166.2915,282.8857,77.2008,-3.6117e-05,-5.24e-06,0.0,0 STARLINK-5541,1 56475U 23064AD  24211.95529551 -.00000524  00000-0 -36117-4 0  9998,2 56475  70.0013 166.2915 0002630 282.8857  77.2008 14.98340971 67701,6950.159,96.106,573.852,570.196,0.0
56475.0,STARLINK-5541,PAYLOAD,2024-07-30 03:44:01,14.98342527,0.0002723,70.0003,165.7859,280.8,79.2853,-1.6649e-05,-2.92e-06,0.0,0 STARLINK-5541,1 56475U 23064AD  24212.15557211 -.00000292  00000-0 -16649-4 0  9995,2 56475  70.0003 165.7859 0002723 280.8000  79.2853 14.98342527 68094,6950.154,96.106,573.912,570.127,0.0
56475.0,STARLINK-5541,PAYLOAD,2024-07-30 06:56:17,14.98344279,0.0002755,70.0002,165.4493,280.2983,79.7866,6.7201e-06,-1.3e-07,0.0,0 STARLINK-5541,1 56475U 23064AD  24212.28908914 -.00000013  00000-0  67201-5 0  9990,2 56475  70.0002 165.4493 0002755 280.2983  79.7866 14.98344279 67750,6950.149,96.106,573.929,570.099,0.0
56475.0,STARLINK-5541,PAYLOAD,2024-07-30 22:57:37,14.98346156,0.0002728,70.0002,163.7662,280.0326,80.0525,-7.6575e-05,-1.007e-05,0.0,0 STARLINK-5541,1 56475U 23064AD  24212.95668429 -.00001007  00000-0 -76575-4 0  9996,2 56475  70.0002 163.7662 0002728 280.0326  80.0525 14.98346156 67852,6950.143,96.106,573.904,570.112,0.0
56475.0,STARLINK-5541,PAYLOAD,2024-07-31 05:22:09,14.98348887,0.0002696,70.0005,163.0928,280.206,79.8795,-4.2136e-05,-5.96e-06,0.0,0 STARLINK-5541,1 56475U 23064AD  24213.22371887 -.00000596  00000-0 -42136-4 0  9994,2 56475  70.0005 163.0928 0002696 280.2060  79.8795 14.98348887 68257,6950.134,96.106,573.873,570.126,0.0
56475.0,STARLINK-5541,PAYLOAD,2024-07-31 13:22:49,14.9834093,0.0002597,70.0007,162.2515,280.3508,79.7358,-0.00010074,-1.295e-05,0.0,0 STARLINK-5541,1 56475U 23064AD  24213.55752245 -.00001295  00000-0 -10074-3 0  9993,2 56475  70.0007 162.2515 0002597 280.3508  79.7358 14.98340930 67940,6950.159,96.106,573.829,570.219,0.0
56475.0,STARLINK-5541,PAYLOAD,2024-07-31 21:23:33,14.98300101,0.0003253,70.0006,161.4098,274.1313,85.9474,-0.00036259,-4.413e-05,0.0,0 STARLINK-5541,1 56475U 23064AD  24213.89135419 -.00004413  00000-0 -36259-3 0  9996,2 56475  70.0006 161.4098 0003253 274.1313  85.9474 14.98300101 68351,6950.285,96.109,574.411,569.889,0.0
56475.0,STARLINK-5541,PAYLOAD,2024-07-31 22:59:41,14.98300743,0.0003211,70.0005,161.2415,274.606,85.4732,-0.00034762,-4.235e-05,0.0,0 STARLINK-5541,1 56475U 23064AD  24213.95811447 -.00004235  00000-0 -34762-3 0  9994,2 56475  70.0005 161.2415 0003211 274.6060  85.4732 14.98300743 68005,6950.283,96.109,574.38,569.917,0.0
